ASTROCAST-0403          
1 55111U 23001DG  26068.82333059  .00013959  00000+0  51317-3 0  9990
2 55111  97.5604 161.3228 0004770 338.0704  22.0330 15.28004949129376
STARLINK-31589          
1 59654U 24084A   26068.94159758  .00001085  00000+0  48923-4 0  9990
2 59654  42.9979  40.2098 0000529 106.1445 253.9465 15.27575395104436
